STARLINK-31576          
1 59208U 24046H   26068.50294241  .00000954  00000+0  44330-4 0  9994
2 59208  53.1608 156.0151 0001232  99.3978 260.7162 15.30187912113029
2025-313BD              
1 67299U 25313BD  26068.62968741  .00081010  00000+0  27634-2 0  9995
2 67299  97.3970 145.2850 0007287 333.4514  26.6352 15.30002360 10838
